FENGYUN 1C DEB          
1 30686U 99025AQU 17345.75937384  .00000694  00000-0  15097-3 0  9998
2 30686  98.9769 267.0802 0203545 318.6109  91.9816 14.49847555570980
